OBJECT_NAME,OBJECT_ID,EPOCH,MEAN_MOTION,ECCENTRICITY,INCLINATION,RA_OF_ASC_NODE,ARG_OF_PERICENTER,MEAN_ANOMALY,EPHEMERIS_TYPE,CLASSIFICATION_TYPE,NORAD_CAT_ID,ELEMENT_SET_NO,REV_AT_EPOCH,BSTAR,MEAN_MOTION_DOT,MEAN_MOTION_DDOT
ONEWEB-0365,2021-090N,2026-07-19T18:54:36.600768,13.19726341,.00020721,87.9193,298.4773,101.5209,258.6156,0,U,49291,999,23072,-.35913368E-4,-.1E-7,0
ONEWEB-0366,2021-090P,2026-07-20T03:59:49.505280,13.14502495,.00020133,87.8964,283.1359,98.4233,261.7125,0,U,49292,999,23189,-.14863437E-3,-.42E-6,0
ONEWEB-0367,2021-090Q,2026-07-19T21:21:43.103808,13.20773691,.00022005,87.9179,267.9242,99.9699,260.1683,0,U,49293,999,23414,.20896068E-3,.98E-6,0
ONEWEB-0368,2021-090R,2026-07-20T02:11:26.428704,13.20774546,.00016886,87.9176,267.8909,99.6916,260.4408,0,U,49294,999,23532,-.10706381E-2,-.422E-5,0
ONEWEB-0369,2021-090S,2026-07-20T05:42:50.561280,13.19726687,.00020028,87.9184,298.3926,102.9026,257.2331,0,U,49295,999,23077,.1286269E-3,.64E-6,0
ONEWEB-0370,2021-090T,2026-07-20T03:02:20.208192,13.20772815,.0002264,87.9179,267.8763,92.6165,267.5227,0,U,49296,999,23421,.76046136E-4,.44E-6,0
ONEWEB-0371,2021-090U,2026-07-20T05:54:13.192128,13.19725351,.00020903,87.9193,298.3858,100.1989,259.9380,0,U,49297,999,23081,.46673073E-4,.32E-6,0
ONEWEB-0372,2021-090V,2026-07-20T04:36:40.734432,13.20769962,.00020689,87.9182,267.8654,98.7272,261.4096,0,U,49298,999,23419,.72913933E-4,.43E-6,0
ONEWEB-0373,2021-090W,2026-07-20T03:24:08.333568,13.20771052,.00020286,87.9177,267.8751,95.5221,264.6143,0,U,49299,999,23537,-.22373972E-3,-.78E-6,0
ONEWEB-0374,2021-090X,2026-07-20T03:41:32.321184,13.14502531,.0001476,87.8967,283.1303,91.9150,268.2149,0,U,49300,999,23189,.38543994E-3,.156E-5,0
ONEWEB-0375,2021-090Y,2026-07-20T03:07:10.375680,13.20771478,.00015749,87.9180,267.8696,87.0894,273.0420,0,U,49301,999,23487,-.29399249E-3,-.107E-5,0
ONEWEB-0376,2021-090Z,2026-07-20T05:51:55.937088,13.19724571,.00020892,87.9191,298.3860,105.1394,254.9970,0,U,49302,999,23081,-.35192136E-3,-.128E-5,0
ONEWEB-0377,2021-090AA,2026-07-20T04:37:03.371232,13.20770210,.00017512,87.9181,267.8592,95.4366,264.6967,0,U,49303,999,23487,.3527638E-4,.27E-6,0
ONEWEB-0378,2021-090AB,2026-07-20T03:17:05.370144,13.20772610,.00019185,87.9175,267.8736,98.3160,261.8191,0,U,49304,999,23413,.29460512E-3,.133E-5,0
ONEWEB-0379,2021-090AC,2026-07-20T05:24:18.593280,13.14502470,.00018839,87.8967,283.1261,99.6658,260.4685,0,U,49305,999,23190,.65043923E-3,.254E-5,0
ONEWEB-0380,2021-090AD,2026-07-20T05:47:23.527392,13.19727035,.00019506,87.9185,298.3897,94.9118,265.2238,0,U,49306,999,23078,.15996072E-3,.77E-6,0
ONEWEB-0381,2021-090AE,2026-07-20T04:32:00.875328,13.20769999,.00018124,87.9180,267.8644,94.2788,265.8552,0,U,49307,999,23418,-.52410191E-4,-.8E-7,0
ONEWEB-0382,2021-090AF,2026-07-19T17:18:06.376032,13.20771867,.00017451,87.9183,267.9517,98.3002,261.8329,0,U,49308,999,23411,-.24855841E-3,-.88E-6,0
ONEWEB-0383,2021-090AG,2026-07-19T18:17:30.995520,13.14502618,.00018916,87.8968,283.2106,102.8809,257.2532,0,U,49309,999,23187,.53966847E-3,.213E-5,0
ONEWEB-0384,2021-090AH,2026-07-20T03:54:46.679328,13.20814419,.00015783,87.9177,267.9071,102.0312,258.0998,0,U,49310,999,23418,-.41509933E-4,-.4E-7,0
ONEWEB-0385,2021-090AJ,2026-07-19T22:35:40.117056,13.20770000,.00018612,87.9177,267.9132,97.2980,262.8365,0,U,49311,999,23412,.8178787E-5,.16E-6,0
ONEWEB-0386,2021-090AK,2026-07-20T02:38:04.415712,13.20770293,.00017827,87.9186,267.8720,98.2461,261.8875,0,U,49312,999,23416,.35096537E-4,.27E-6,0
ONEWEB-0387,2021-090AL,2026-07-19T17:10:49.287072,13.20770363,.00018955,87.9171,267.9683,87.8740,272.2610,0,U,49313,999,23411,.20085898E-4,.21E-6,0
ONEWEB-0388,2021-090AM,2026-07-20T05:40:34.254912,13.19724887,.00018734,87.9185,298.3888,100.3892,259.7452,0,U,49314,999,23077,-.29599538E-3,-.106E-5,0
ONEWEB-0389,2021-132A,2026-07-20T03:43:12.365472,13.17647874,.00016785,87.9150,359.3097,84.8750,275.2573,0,U,50469,999,22242,-.22324265E-3,-.74E-6,0
ONEWEB-0390,2021-132B,2026-07-20T00:06:56.433312,13.17647525,.00020703,87.9151,359.3406,89.8033,270.3336,0,U,50470,999,22240,-.12730126E-3,-.37E-6,0
ONEWEB-0391,2021-132C,2026-07-19T22:20:01.252320,13.17647226,.0001846,87.9153,359.3652,68.1853,291.9475,0,U,50471,999,22239,-.13646352E-4,.8E-7,0
ONEWEB-0392,2021-132D,2026-07-19T23:03:45.830304,13.17648754,.00016772,87.9160,359.3302,83.1498,276.9825,0,U,50472,999,22243,-.45406214E-3,-.163E-5,0
ONEWEB-0393,2021-132E,2026-07-19T22:28:33.156768,13.17647727,.00017643,87.9151,359.3490,89.1970,270.9363,0,U,50473,999,22242,-.28656935E-4,.2E-7,0
ONEWEB-0394,2021-132F,2026-07-19T21:02:32.268768,13.18684851,.00017584,87.9200,328.9431,99.8682,260.2649,0,U,50474,999,22590,-.68522341E-4,-.14E-6,0
